[{"OBJECT_NAME":"OBJECT C","OBJECT_ID":"2023-104C","EPOCH":"2026-03-09T22:39:44.230752","MEAN_MOTION":15.26846312,"ECCENTRICITY":0.00113074,"INCLINATION":97.273,"RA_OF_ASC_NODE":135.3333,"ARG_OF_PERICENTER":3.876,"MEAN_ANOMALY":356.2565,"EPHEMERIS_TYPE":0,"CLASSIFICATION_TYPE":"U","NORAD_CAT_ID":57426,"ELEMENT_SET_NO":999,"REV_AT_EPOCH":14663,"BSTAR":0.00062618506,"MEAN_MOTION_DOT":0.00016495,"MEAN_MOTION_DDOT":0},{"OBJECT_NAME":"YAOGAN-36 05A","OBJECT_ID":"2023-106A","EPOCH":"2026-03-04T20:25:46.095744","MEAN_MOTION":15.23103701,"ECCENTRICITY":0.0001493,"INCLINATION":35.0062,"RA_OF_ASC_NODE":353.7983,"ARG_OF_PERICENTER":236.3594,"MEAN_ANOMALY":123.6979,"EPHEMERIS_TYPE":0,"CLASSIFICATION_TYPE":"U","NORAD_CAT_ID":57452,"ELEMENT_SET_NO":999,"REV_AT_EPOCH":14523,"BSTAR":0.00020950106,"MEAN_MOTION_DOT":5.028e-5,"MEAN_MOTION_DDOT":0}]
